{"type":"FeatureCollection","features":[{"type":"Feature","id":1,"geometry":{"type":"MultiPolygon","coordinates":[[[[0.6446,40.57422],[0.64474,40.57436],[0.64415,40.57462],[0.6446,40.57422]]],[[[0.64629,40.57457],[0.64674,40.57475],[0.64613,40.57536],[0.64629,40.57457]]],[[[0.64204,40.57519],[0.64195,40.57551],[0.64169,40.57563],[0.64204,40.57519]]],[[[0.64115,40.57533],[0.64121,40.57553],[0.64085,40.57564],[0.64115,40.57533]]],[[[0.64267,40.57522],[0.64283,40.57548],[0.64162,40.57647],[0.64267,40.57522]]],[[[0.64181,40.57588],[0.64184,40.57618],[0.6414,40.57649],[0.64181,40.57588]]],[[[0.64546,40.5756],[0.64564,40.57657],[0.64394,40.57662],[0.64455,40.57591],[0.64546,40.5756]]],[[[0.64358,40.57597],[0.6428,40.57692],[0.64252,40.57692],[0.64258,40.57667],[0.64358,40.57597]]],[[[0.64184,40.57692],[0.6421,40.57703],[0.6418,40.57717],[0.64184,40.57692]]],[[[0.64808,40.57715],[0.64873,40.57705],[0.64802,40.57733],[0.64808,40.57715]]],[[[0.61464,40.57667],[0.61493,40.57703],[0.61454,40.57686],[0.61464,40.57667]]],[[[0.64908,40.57757],[0.64925,40.57772],[0.64872,40.57796],[0.64908,40.57757]]],[[[0.61512,40.57736],[0.61627,40.57664],[0.61571,40.57738],[0.61512,40.57736]]],[[[0.61611,40.57758],[0.61643,40.57752],[0.61633,40.5777],[0.61611,40.57758]]],[[[0.64344,40.57641],[0.64325,40.57719],[0.64195,40.57854],[0.64344,40.57641]]],[[[0.64674,40.57827],[0.6469,40.57836],[0.64648,40.57886],[0.64674,40.57827]]],[[[0.64833,40.57888],[0.6488,40.57861],[0.64819,40.57917],[0.64833,40.57888]]],[[[0.64368,40.57883],[0.64358,40.57918],[0.64338,40.57919],[0.64368,40.57883]]],[[[0.64658,40.57834],[0.64579,40.57925],[0.64541,40.57932],[0.64555,40.57862],[0.64658,40.57834]]],[[[0.64844,40.57911],[0.64908,40.57895],[0.64802,40.58016],[0.64844,40.57911]]],[[[0.64884,40.57934],[0.64922,40.57964],[0.64844,40.58026],[0.64884,40.57934]]],[[[0.64919,40.57994],[0.64935,40.58004],[0.64901,40.58028],[0.64919,40.57994]]],[[[0.63779,40.58003],[0.63847,40.57986],[0.63784,40.58015],[0.63779,40.58003]]],[[[0.63851,40.58039],[0.6388,40.58037],[0.63843,40.58064],[0.63851,40.58039]]],[[[0.64274,40.58008],[0.64273,40.58036],[0.64235,40.58078],[0.64274,40.58008]]],[[[0.65552,40.57863],[0.6559,40.57995],[0.65322,40.58137],[0.65412,40.57965],[0.65552,40.57863]]],[[[0.63539,40.57944],[0.63546,40.58132],[0.63345,40.57982],[0.63488,40.57739],[0.63582,40.57775],[0.63418,40.57893],[0.63539,40.57944]]],[[[0.63425,40.58152],[0.63467,40.5812],[0.63479,40.58142],[0.63425,40.58152]]],[[[0.65186,40.58142],[0.65277,40.58152],[0.65143,40.58189],[0.65186,40.58142]]],[[[0.63818,40.58163],[0.63841,40.58172],[0.63807,40.5818],[0.63818,40.58163]]],[[[0.63048,40.58044],[0.63162,40.58086],[0.63175,40.58121],[0.62987,40.5815],[0.63048,40.58044]]],[[[0.63296,40.58122],[0.63357,40.58179],[0.63291,40.58143],[0.63296,40.58122]]],[[[0.63667,40.58163],[0.63694,40.58182],[0.63677,40.58193],[0.63667,40.58163]]],[[[0.63375,40.58178],[0.63408,40.58169],[0.63374,40.58193],[0.63375,40.58178]]],[[[0.63875,40.58194],[0.63916,40.582],[0.63863,40.58215],[0.63875,40.58194]]],[[[0.65211,40.5822],[0.65221,40.58239],[0.65179,40.58245],[0.65211,40.5822]]],[[[0.63214,40.58123],[0.63297,40.58211],[0.63117,40.58208],[0.63214,40.58123]]],[[[0.6344,40.58167],[0.63437,40.58222],[0.63406,40.58234],[0.6344,40.58167]]],[[[0.64221,40.58167],[0.64188,40.58246],[0.64149,40.58259],[0.64221,40.58167]]],[[[0.63593,40.58149],[0.63574,40.58223],[0.63462,40.58249],[0.63482,40.58187],[0.63593,40.58149]]],[[[0.64604,40.58272],[0.64535,40.5833],[0.64491,40.5831],[0.64512,40.58244],[0.64604,40.58272]]],[[[0.64976,40.58333],[0.64956,40.5829],[0.65002,40.58306],[0.64976,40.58333]]],[[[0.65474,40.58352],[0.65347,40.58335],[0.65579,40.58132],[0.65548,40.58211],[0.65474,40.58352]]],[[[0.64368,40.58365],[0.64281,40.58361],[0.64288,40.58327],[0.64319,40.58293],[0.64368,40.58365]]],[[[0.64537,40.58357],[0.64452,40.58418],[0.64408,40.58389],[0.64537,40.58357]]],[[[0.64684,40.58408],[0.64605,40.58457],[0.64593,40.5841],[0.64684,40.58408]]],[[[0.64795,40.58338],[0.64768,40.58482],[0.64708,40.58444],[0.64795,40.58338]]],[[[0.6524,40.58523],[0.6498,40.58517],[0.649,40.58435],[0.65196,40.58494],[0.65466,40.58378],[0.6524,40.58523]]],[[[0.71654,40.60327],[0.71723,40.60276],[0.71725,40.60299],[0.71654,40.60327]]],[[[0.70726,40.63532],[0.70768,40.63528],[0.70761,40.63561],[0.70726,40.63532]]],[[[0.73904,40.63745],[0.74026,40.63743],[0.7392,40.63826],[0.73904,40.63745]]],[[[0.77067,40.76309],[0.77111,40.76331],[0.7705,40.7633],[0.77067,40.76309]]],[[[0.75811,40.76298],[0.75843,40.76305],[0.75797,40.76376],[0.75811,40.76298]]],[[[0.75235,40.76341],[0.75044,40.76419],[0.75035,40.76374],[0.75235,40.76341]]],[[[0.76773,40.76442],[0.76793,40.76436],[0.76761,40.76477],[0.76773,40.76442]]],[[[0.72242,40.77834],[0.72281,40.77851],[0.7223,40.77856],[0.72242,40.77834]]],[[[0.73429,40.78578],[0.73488,40.78587],[0.73384,40.78612],[0.73429,40.78578]]],[[[0.73398,40.78701],[0.73455,40.78714],[0.73368,40.7875],[0.73398,40.78701]]],[[[0.7333,40.78722],[0.73134,40.7892],[0.72895,40.78784],[0.73089,40.78658],[0.73209,40.78704],[0.73109,40.78765],[0.7333,40.78722]]],[[[1.03644,41.05759],[1.03699,41.05785],[1.03623,41.05769],[1.03644,41.05759]]],[[[1.04141,41.05964],[1.042,41.05972],[1.04202,41.05981],[1.04141,41.05964]]],[[[1.11286,41.07043],[1.11406,41.07057],[1.1142,41.07069],[1.11286,41.07043]]],[[[1.64209,41.19305],[1.64476,41.19349],[1.64188,41.19314],[1.64209,41.19305]]],[[[1.65185,41.19466],[1.65095,41.19508],[1.6502,41.19459],[1.65151,41.1944],[1.65185,41.19466]]],[[[1.66159,41.19513],[1.66294,41.19525],[1.66299,41.19528],[1.66159,41.19513]]],[[[1.66528,41.19559],[1.66656,41.19574],[1.66523,41.19566],[1.66528,41.19559]]],[[[1.66891,41.19615],[1.67026,41.19614],[1.67038,41.19621],[1.66891,41.19615]]],[[[2.16992,41.32657],[2.1753,41.35029],[2.18329,41.36326],[2.18306,41.3652],[2.17217,41.34855],[2.16983,41.33768],[2.1712,41.33719],[2.17118,41.33393],[2.16944,41.32644],[2.17261,41.31704],[2.16992,41.32657]]],[[[2.19373,41.37621],[2.19463,41.37701],[2.19456,41.37728],[2.19373,41.37621]]],[[[2.20588,41.38918],[2.20622,41.38939],[2.20577,41.38935],[2.20588,41.38918]]],[[[2.22196,41.40358],[2.22311,41.40488],[2.22307,41.40509],[2.22196,41.40358]]],[[[2.22628,41.40739],[2.2265,41.40768],[2.22643,41.40769],[2.22628,41.40739]]],[[[2.22675,41.40785],[2.22701,41.4079],[2.22694,41.40826],[2.22675,41.40785]]],[[[2.22698,41.40841],[2.22804,41.40908],[2.2279,41.40961],[2.22698,41.40841]]],[[[2.79214,41.67049],[2.79247,41.67044],[2.79235,41.67079],[2.79214,41.67049]]],[[[2.80321,41.67305],[2.8038,41.67323],[2.80312,41.67312],[2.80321,41.67305]]],[[[2.80765,41.67681],[2.8079,41.67751],[2.80727,41.67697],[2.80765,41.67681]]],[[[2.81549,41.68197],[2.816,41.68211],[2.81551,41.68218],[2.81549,41.68197]]],[[[2.81589,41.6828],[2.81615,41.68303],[2.81584,41.68284],[2.81589,41.6828]]],[[[2.81867,41.68683],[2.81876,41.68659],[2.81912,41.68688],[2.81867,41.68683]]],[[[2.82688,41.69002],[2.82732,41.69018],[2.8267,41.69021],[2.82688,41.69002]]],[[[2.82907,41.69097],[2.82953,41.69108],[2.82904,41.69124],[2.82907,41.69097]]],[[[2.87187,41.70017],[2.87235,41.70023],[2.87218,41.70041],[2.87187,41.70017]]],[[[2.88631,41.70146],[2.88677,41.7014],[2.8869,41.7015],[2.88631,41.70146]]],[[[2.87863,41.70154],[2.87936,41.7015],[2.87933,41.70163],[2.87863,41.70154]]],[[[2.89262,41.70369],[2.89296,41.70357],[2.89301,41.70379],[2.89262,41.70369]]],[[[2.89583,41.70376],[2.89605,41.70358],[2.89634,41.70386],[2.89583,41.70376]]],[[[2.912,41.70743],[2.91231,41.70756],[2.91155,41.70773],[2.912,41.70743]]],[[[2.92661,41.71357],[2.92737,41.71354],[2.92658,41.71363],[2.92661,41.71357]]],[[[2.9396,41.72019],[2.94034,41.72014],[2.93998,41.72066],[2.9396,41.72019]]],[[[2.94107,41.72463],[2.9413,41.7244],[2.94141,41.72451],[2.94107,41.72463]]],[[[2.94576,41.7258],[2.94618,41.72585],[2.94581,41.72597],[2.94576,41.7258]]],[[[2.96503,41.74529],[2.96547,41.74519],[2.96546,41.74536],[2.96503,41.74529]]],[[[2.98147,41.75736],[2.98199,41.75738],[2.98199,41.75755],[2.98147,41.75736]]],[[[2.98089,41.75775],[2.98093,41.75811],[2.98071,41.75784],[2.98089,41.75775]]],[[[3.03204,41.77176],[3.03257,41.77219],[3.03246,41.77255],[3.03204,41.77176]]],[[[3.04673,41.78333],[3.04723,41.78327],[3.04727,41.78335],[3.04673,41.78333]]],[[[3.05664,41.78677],[3.05691,41.7869],[3.05635,41.78697],[3.05664,41.78677]]],[[[3.05656,41.78711],[3.0562,41.78738],[3.05569,41.78708],[3.05656,41.78711]]],[[[3.05927,41.79196],[3.0595,41.79175],[3.05968,41.79201],[3.05927,41.79196]]],[[[3.05875,41.80398],[3.05877,41.80431],[3.05747,41.80454],[3.05875,41.80398]]],[[[3.08076,41.82404],[3.08147,41.824],[3.08089,41.8242],[3.08076,41.82404]]],[[[3.18718,41.86263],[3.18739,41.86296],[3.18705,41.8628],[3.18718,41.86263]]],[[[3.17883,41.86753],[3.17939,41.86729],[3.1794,41.86731],[3.17883,41.86753]]],[[[3.17848,41.86779],[3.17911,41.86771],[3.17902,41.86826],[3.17848,41.86779]]],[[[3.17796,41.87083],[3.17839,41.87085],[3.17837,41.87107],[3.17796,41.87083]]],[[[3.21786,41.92211],[3.21948,41.92164],[3.22003,41.92223],[3.21786,41.92211]]],[[[3.21727,41.92415],[3.2177,41.92408],[3.21818,41.92427],[3.21727,41.92415]]],[[[3.21767,41.92496],[3.21803,41.92476],[3.2183,41.92489],[3.21767,41.92496]]],[[[3.21788,41.93769],[3.21824,41.93818],[3.21766,41.93785],[3.21788,41.93769]]],[[[3.22795,42.04166],[3.22877,42.04183],[3.22799,42.04194],[3.22795,42.04166]]],[[[3.22693,42.04191],[3.22768,42.04207],[3.22727,42.04231],[3.22693,42.04191]]],[[[3.22725,42.04414],[3.22426,42.0444],[3.22386,42.0436],[3.22522,42.04259],[3.22725,42.04414]]],[[[3.22591,42.04889],[3.22423,42.04993],[3.22329,42.04876],[3.22041,42.04923],[3.219,42.04807],[3.22295,42.04485],[3.22591,42.04889]]],[[[3.21026,42.06276],[3.21066,42.06286],[3.2101,42.06289],[3.21026,42.06276]]],[[[3.20583,42.07339],[3.20568,42.07415],[3.20482,42.07439],[3.2049,42.07366],[3.20583,42.07339]]],[[[3.19729,42.0848],[3.19806,42.0845],[3.19765,42.08499],[3.19729,42.0848]]],[[[3.16616,42.11369],[3.16652,42.11386],[3.16625,42.11406],[3.16616,42.11369]]],[[[3.13159,42.1286],[3.13178,42.12883],[3.13132,42.12894],[3.13159,42.1286]]],[[[3.12318,42.1359],[3.12383,42.13573],[3.12375,42.13614],[3.12318,42.1359]]],[[[3.26335,42.23729],[3.26432,42.23727],[3.26435,42.2373],[3.26335,42.23729]]],[[[3.20299,42.23993],[3.20329,42.24017],[3.2027,42.24016],[3.20299,42.23993]]],[[[3.20331,42.24081],[3.20345,42.24026],[3.2036,42.24086],[3.20331,42.24081]]],[[[3.19774,42.2427],[3.19859,42.24289],[3.19817,42.24305],[3.19774,42.2427]]],[[[3.28314,42.26013],[3.28363,42.26031],[3.2831,42.26018],[3.28314,42.26013]]],[[[3.28327,42.27379],[3.28378,42.27376],[3.28372,42.27386],[3.28327,42.27379]]],[[[3.29114,42.27965],[3.29158,42.27949],[3.29151,42.2798],[3.29114,42.27965]]],[[[3.29316,42.28038],[3.29358,42.28154],[3.29201,42.28236],[3.2918,42.28118],[3.29316,42.28038]]],[[[3.2801,42.28164],[3.27937,42.28238],[3.27847,42.28253],[3.27903,42.28197],[3.2801,42.28164]]],[[[3.29701,42.28899],[3.29696,42.28962],[3.2967,42.28927],[3.29701,42.28899]]],[[[3.29639,42.29136],[3.29715,42.29142],[3.29723,42.29147],[3.29639,42.29136]]],[[[3.30843,42.29161],[3.30932,42.2914],[3.30823,42.29245],[3.30843,42.29161]]],[[[3.30934,42.29171],[3.30966,42.29178],[3.30885,42.29246],[3.30934,42.29171]]],[[[3.2969,42.2933],[3.29713,42.29341],[3.29675,42.29364],[3.2969,42.2933]]],[[[3.29649,42.29038],[3.29633,42.29137],[3.2968,42.29336],[3.29467,42.29424],[3.29321,42.29263],[3.29649,42.29038]]],[[[3.29659,42.29391],[3.2961,42.29513],[3.29544,42.29536],[3.29659,42.29391]]],[[[3.30082,42.30518],[3.30105,42.3054],[3.30067,42.30546],[3.30082,42.30518]]],[[[3.30964,42.31252],[3.31,42.31269],[3.30951,42.31278],[3.30964,42.31252]]],[[[3.32206,42.31856],[3.32223,42.31879],[3.32171,42.31868],[3.32206,42.31856]]],[[[3.33149,42.32016],[3.33216,42.31924],[3.33248,42.32005],[3.33149,42.32016]]],[[[3.32348,42.32202],[3.32406,42.32211],[3.32413,42.32228],[3.32348,42.32202]]],[[[3.31945,42.32383],[3.31943,42.32483],[3.31824,42.32442],[3.32204,42.32129],[3.32443,42.32129],[3.32234,42.32208],[3.32232,42.3234],[3.31945,42.32383]]],[[[3.29873,42.32736],[3.29884,42.32762],[3.29853,42.32755],[3.29873,42.32736]]],[[[3.30632,42.32747],[3.30511,42.32819],[3.30399,42.3274],[3.30527,42.3271],[3.30632,42.32747]]],[[[3.29866,42.32835],[3.29807,42.32814],[3.29869,42.32831],[3.29866,42.32835]]],[[[3.28598,42.33225],[3.28705,42.33276],[3.28579,42.33345],[3.28598,42.33225]]],[[[3.2604,42.33652],[3.26083,42.33664],[3.26034,42.33668],[3.2604,42.33652]]],[[[3.27752,42.33731],[3.27765,42.33752],[3.27722,42.33748],[3.27752,42.33731]]],[[[3.24042,42.33738],[3.24132,42.33742],[3.24057,42.33772],[3.24042,42.33738]]],[[[3.27071,42.33872],[3.27117,42.33856],[3.27125,42.33862],[3.27071,42.33872]]],[[[3.24042,42.33898],[3.24048,42.33938],[3.24007,42.33905],[3.24042,42.33898]]],[[[3.24335,42.33932],[3.24231,42.34013],[3.24179,42.33979],[3.24335,42.33932]]],[[[3.21824,42.35007],[3.2179,42.35028],[3.21772,42.35017],[3.21824,42.35007]]],[[[3.17824,42.35314],[3.17864,42.3532],[3.17855,42.35333],[3.17824,42.35314]]],[[[3.18243,42.35293],[3.18334,42.35341],[3.18291,42.35369],[3.18243,42.35293]]],[[[3.17566,42.35473],[3.17593,42.35449],[3.17631,42.35469],[3.17566,42.35473]]],[[[3.16534,42.36182],[3.16486,42.36242],[3.1647,42.36247],[3.16534,42.36182]]],[[[3.16722,42.36737],[3.16751,42.36751],[3.16714,42.3675],[3.16722,42.36737]]],[[[3.1652,42.37252],[3.16561,42.37267],[3.16556,42.37283],[3.1652,42.37252]]],[[[3.15923,42.38332],[3.1593,42.38373],[3.15904,42.38364],[3.15923,42.38332]]],[[[3.16297,42.38476],[3.16329,42.38479],[3.16306,42.38509],[3.16297,42.38476]]],[[[3.16491,42.40015],[3.16521,42.39997],[3.16525,42.40005],[3.16491,42.40015]]],[[[3.16577,42.40059],[3.16641,42.40136],[3.1658,42.40187],[3.16518,42.40161],[3.16577,42.40059]]],[[[3.16472,42.41087],[3.16546,42.41099],[3.16558,42.4113],[3.16472,42.41087]]],[[[1.99842,42.48532],[1.98963,42.49369],[1.97915,42.49499],[1.9776,42.49134],[1.97812,42.48597],[1.97245,42.48487],[1.97055,42.48053],[1.96308,42.47871],[1.95656,42.45794],[1.95983,42.45329],[1.98392,42.44674],[2.00302,42.44696],[2.01278,42.44836],[2.01439,42.45179],[2.01054,42.45586],[1.99538,42.46139],[1.98736,42.46976],[1.9867,42.47572],[1.99379,42.4846],[1.99842,42.48532]]],[[[0.72354,42.85891],[0.70829,42.86142],[0.7001,42.85754],[0.69159,42.85512],[0.67824,42.85479],[0.67812,42.84768],[0.66421,42.84226],[0.6593,42.83871],[0.65893,42.83628],[0.66152,42.82986],[0.66995,42.82431],[0.67025,42.82158],[0.66722,42.81918],[0.66497,42.81379],[0.67082,42.80455],[0.66945,42.80184],[0.66046,42.79844],[0.6542,42.79216],[0.65047,42.78538],[0.64759,42.78511],[0.64506,42.78312],[0.65379,42.77732],[0.66722,42.77511],[0.6623,42.77001],[0.65856,42.76815],[0.65567,42.76854],[0.65042,42.76495],[0.65109,42.76327],[0.65006,42.76024],[0.64555,42.7556],[0.63928,42.75487],[0.64731,42.75145],[0.66082,42.75174],[0.66374,42.74946],[0.66269,42.74572],[0.66323,42.74327],[0.66746,42.73849],[0.66723,42.73653],[0.67045,42.73091],[0.677,42.72807],[0.68017,42.72325],[0.67375,42.7174],[0.67738,42.71253],[0.68253,42.70902],[0.68106,42.70534],[0.67617,42.70289],[0.67395,42.69892],[0.67417,42.69605],[0.67675,42.69082],[0.67208,42.69003],[0.66216,42.69143],[0.6602,42.69085],[0.66004,42.6888],[0.66652,42.68218],[0.67353,42.67875],[0.67546,42.67168],[0.68331,42.66522],[0.68452,42.65959],[0.68715,42.65822],[0.69576,42.65827],[0.69546,42.65212],[0.70143,42.64036],[0.69857,42.62947],[0.69919,42.62837],[0.70779,42.62103],[0.71727,42.61981],[0.72881,42.61515],[0.73298,42.61538],[0.73876,42.61235],[0.74123,42.61261],[0.74496,42.61514],[0.76757,42.61159],[0.76631,42.60437],[0.76083,42.59216],[0.75895,42.57321],[0.75771,42.56935],[0.75463,42.56428],[0.74857,42.55822],[0.7494,42.55327],[0.74333,42.54828],[0.7413,42.54408],[0.74174,42.54204],[0.74956,42.53525],[0.75305,42.53382],[0.73894,42.5375],[0.7354,42.54088],[0.72908,42.53621],[0.72113,42.5244],[0.7238,42.52057],[0.72329,42.51784],[0.72021,42.51526],[0.71993,42.51287],[0.7247,42.51298],[0.73059,42.51149],[0.74065,42.50588],[0.741,42.50483],[0.73808,42.50344],[0.73406,42.5042],[0.73043,42.49728],[0.72785,42.49795],[0.7134,42.48723],[0.70924,42.48919],[0.70829,42.49142],[0.70473,42.49376],[0.70071,42.49544],[0.69913,42.4949],[0.70068,42.49021],[0.69769,42.48553],[0.69013,42.48651],[0.69058,42.48356],[0.6945,42.47623],[0.70472,42.46403],[0.70643,42.46369],[0.70903,42.45887],[0.7073,42.4539],[0.70713,42.4488],[0.71277,42.43447],[0.72787,42.42458],[0.73461,42.41495],[0.73541,42.41229],[0.73473,42.40787],[0.72797,42.40784],[0.72646,42.4048],[0.7377,42.39836],[0.7392,42.39404],[0.7456,42.3844],[0.74251,42.37887],[0.73482,42.3762],[0.73535,42.37396],[0.73402,42.3716],[0.72509,42.37015],[0.72235,42.36867],[0.72209,42.36656],[0.72744,42.36327],[0.73844,42.36041],[0.7465,42.35645],[0.76033,42.35708],[0.77096,42.35032],[0.76357,42.34701],[0.76009,42.34846],[0.75352,42.34601],[0.74105,42.33483],[0.74351,42.32792],[0.7595,42.32543],[0.76567,42.32282],[0.76013,42.32046],[0.75892,42.31718],[0.75467,42.31391],[0.75612,42.30935],[0.74439,42.30124],[0.74321,42.29091],[0.74369,42.28565],[0.73955,42.28432],[0.73785,42.28237],[0.73913,42.27793],[0.73939,42.26959],[0.73434,42.25074],[0.73227,42.24744],[0.72786,42.24615],[0.72556,42.24323],[0.72413,42.23919],[0.72476,42.23664],[0.7208,42.23042],[0.7143,42.22386],[0.71467,42.21714],[0.71347,42.21236],[0.71204,42.20851],[0.70791,42.20405],[0.70914,42.19684],[0.70676,42.19115],[0.70452,42.19053],[0.70213,42.18734],[0.70078,42.17851],[0.69782,42.17254],[0.7011,42.16918],[0.70888,42.1667],[0.71396,42.16308],[0.70854,42.15959],[0.70349,42.15799],[0.69564,42.15149],[0.69669,42.12868],[0.70218,42.12148],[0.70219,42.11644],[0.69895,42.11003],[0.6985,42.10375],[0.69624,42.09936],[0.68863,42.09551],[0.68503,42.09242],[0.683,42.08846],[0.68331,42.08342],[0.67966,42.07432],[0.6736,42.06763],[0.6712,42.06305],[0.66866,42.05476],[0.6691,42.04947],[0.67061,42.04847],[0.67099,42.04641],[0.66647,42.04146],[0.65923,42.04137],[0.65689,42.0401],[0.65728,42.03101],[0.65268,42.02673],[0.65247,42.0232],[0.65741,42.01473],[0.65989,42.01387],[0.66407,42.01528],[0.6597,42.00826],[0.65795,42.00235],[0.65434,41.99924],[0.64662,41.99626],[0.64527,41.99219],[0.6457,41.98728],[0.64186,41.98201],[0.64234,41.98617],[0.63886,41.99474],[0.63253,41.99273],[0.62508,41.99216],[0.62227,41.99074],[0.61691,41.98698],[0.61813,41.98431],[0.6169,41.98222],[0.6112,41.97799],[0.61191,41.97317],[0.61049,41.96789],[0.60353,41.96554],[0.60558,41.95999],[0.60068,41.96176],[0.59308,41.96871],[0.58701,41.9665],[0.58601,41.9616],[0.57818,41.95757],[0.57724,41.95484],[0.56773,41.94662],[0.56142,41.93794],[0.56264,41.93269],[0.5724,41.93134],[0.58042,41.92816],[0.6017,41.92277],[0.60759,41.91923],[0.60592,41.918],[0.59877,41.91898],[0.59498,41.91763],[0.59576,41.91409],[0.60072,41.90972],[0.60091,41.90817],[0.59505,41.8886],[0.59208,41.8848],[0.60832,41.87836],[0.60735,41.87177],[0.60349,41.86915],[0.59874,41.86926],[0.57989,41.86317],[0.58196,41.85726],[0.58003,41.85081],[0.5569,41.85377],[0.55536,41.85293],[0.55257,41.84911],[0.55306,41.84766],[0.5514,41.84351],[0.55132,41.84059],[0.55341,41.8401],[0.55221,41.83436],[0.5481,41.82635],[0.54199,41.82012],[0.52513,41.82225],[0.51945,41.8206],[0.51553,41.82209],[0.5105,41.82017],[0.50194,41.81437],[0.49888,41.80712],[0.49487,41.80434],[0.48852,41.80504],[0.47409,41.78806],[0.46982,41.76543],[0.46448,41.76331],[0.44814,41.76471],[0.43798,41.76132],[0.4282,41.76161],[0.42359,41.76018],[0.40685,41.75866],[0.39906,41.75584],[0.39954,41.75468],[0.39797,41.75428],[0.39849,41.74859],[0.39481,41.7377],[0.39524,41.73182],[0.39081,41.73419],[0.38521,41.73962],[0.3727,41.72345],[0.36888,41.72414],[0.36821,41.71365],[0.35877,41.70843],[0.34154,41.69606],[0.34103,41.69425],[0.32832,41.68153],[0.3258,41.67338],[0.3263,41.66256],[0.333,41.65978],[0.34967,41.63648],[0.35554,41.63458],[0.35825,41.63197],[0.35382,41.62953],[0.3468,41.62239],[0.34979,41.59955],[0.39223,41.59521],[0.40221,41.59262],[0.42881,41.6022],[0.43371,41.59337],[0.43616,41.58489],[0.43133,41.581],[0.43023,41.57733],[0.43306,41.5688],[0.4301,41.56511],[0.43946,41.55565],[0.44491,41.54725],[0.44617,41.54301],[0.43317,41.53169],[0.4269,41.5224],[0.41909,41.51781],[0.40716,41.50147],[0.39651,41.49036],[0.38624,41.48642],[0.3719,41.48474],[0.36863,41.48631],[0.34782,41.4879],[0.34279,41.48396],[0.34182,41.48067],[0.34488,41.47341],[0.34509,41.46212],[0.34741,41.45938],[0.35527,41.45482],[0.35669,41.45145],[0.35297,41.44555],[0.34853,41.4419],[0.34892,41.43369],[0.34739,41.42944],[0.34841,41.42673],[0.34342,41.41489],[0.33893,41.40987],[0.32002,41.39419],[0.35205,41.374],[0.3583,41.37199],[0.37476,41.35135],[0.36739,41.34359],[0.35123,41.33262],[0.34856,41.32834],[0.35119,41.32448],[0.3638,41.32146],[0.3679,41.31928],[0.37017,41.31535],[0.37032,41.31215],[0.36843,41.30643],[0.36547,41.30372],[0.36964,41.29606],[0.38569,41.27855],[0.37988,41.27101],[0.37691,41.26121],[0.37822,41.25576],[0.37782,41.25262],[0.37362,41.24834],[0.37384,41.24543],[0.37793,41.2419],[0.37875,41.2376],[0.38172,41.23663],[0.3773,41.23634],[0.36421,41.23855],[0.36315,41.23578],[0.36462,41.23166],[0.36451,41.22792],[0.36083,41.22516],[0.34909,41.22689],[0.34077,41.231],[0.33792,41.22978],[0.33534,41.22531],[0.33105,41.22235],[0.32637,41.22255],[0.32241,41.22485],[0.32121,41.22405],[0.31842,41.21984],[0.31731,41.2119],[0.31395,41.20542],[0.31109,41.19485],[0.30624,41.1856],[0.30485,41.17182],[0.30339,41.16894],[0.30043,41.16711],[0.3033,41.16453],[0.30199,41.16098],[0.2835,41.15543],[0.27216,41.14856],[0.25302,41.14992],[0.25617,41.14296],[0.2508,41.13835],[0.2519,41.13378],[0.24855,41.13004],[0.23782,41.12988],[0.21399,41.13716],[0.21259,41.13637],[0.21979,41.13408],[0.21957,41.13189],[0.20377,41.12837],[0.2009,41.12594],[0.2017,41.12305],[0.20861,41.11648],[0.20046,41.10218],[0.20063,41.08486],[0.20716,41.08288],[0.21545,41.08448],[0.2196,41.08329],[0.2204,41.08167],[0.21945,41.07948],[0.21626,41.0774],[0.22071,41.0713],[0.21739,41.06664],[0.21894,41.06129],[0.22308,41.05843],[0.2284,41.05904],[0.23032,41.05683],[0.23069,41.05417],[0.22943,41.05223],[0.22076,41.04948],[0.21741,41.04732],[0.21809,41.0435],[0.21996,41.04167],[0.22153,41.04169],[0.22666,41.04658],[0.23261,41.04724],[0.23469,41.04606],[0.23465,41.04441],[0.22986,41.03978],[0.23041,41.037],[0.23223,41.03484],[0.24194,41.03441],[0.24446,41.03647],[0.24289,41.04058],[0.24606,41.04142],[0.25037,41.03765],[0.2523,41.03281],[0.25893,41.02858],[0.26533,41.02542],[0.27204,41.02569],[0.2784,41.02164],[0.27992,41.01945],[0.27686,41.0178],[0.26983,41.01919],[0.26188,41.01922],[0.25924,41.01665],[0.25885,41.01409],[0.26186,41.01075],[0.26991,41.0095],[0.27473,41.00664],[0.2748,41.00473],[0.26938,41.00215],[0.26837,40.9982],[0.27197,40.99349],[0.28116,40.98666],[0.28234,40.98243],[0.28094,40.97526],[0.282,40.97276],[0.28974,40.97403],[0.29356,40.97086],[0.29285,40.9686],[0.28803,40.96703],[0.28422,40.96431],[0.28486,40.95888],[0.28134,40.95231],[0.27581,40.94911],[0.27263,40.9457],[0.27382,40.93552],[0.2667,40.92829],[0.26026,40.92795],[0.25359,40.91925],[0.25259,40.91186],[0.25051,40.91169],[0.24848,40.90937],[0.24927,40.90732],[0.25107,40.9068],[0.25128,40.90342],[0.246,40.88914],[0.23861,40.88449],[0.24076,40.882],[0.247,40.87972],[0.25545,40.87402],[0.25344,40.86974],[0.25356,40.8543],[0.25922,40.84423],[0.25998,40.83841],[0.27914,40.82121],[0.27293,40.81872],[0.2729,40.81729],[0.27094,40.8158],[0.26579,40.81339],[0.25965,40.80434],[0.25876,40.80019],[0.25059,40.79852],[0.24499,40.79198],[0.23413,40.78696],[0.23312,40.77938],[0.23505,40.77658],[0.23168,40.77395],[0.22952,40.76875],[0.22794,40.76741],[0.22379,40.76622],[0.21212,40.76759],[0.20315,40.75945],[0.19547,40.7579],[0.19391,40.75454],[0.19001,40.75049],[0.18483,40.75314],[0.17784,40.75484],[0.17557,40.75362],[0.17425,40.74986],[0.17573,40.74354],[0.17454,40.74115],[0.16708,40.74521],[0.16377,40.74928],[0.15908,40.75029],[0.17023,40.7346],[0.17025,40.73274],[0.18173,40.72815],[0.18561,40.72819],[0.19104,40.7311],[0.19458,40.72793],[0.19512,40.7259],[0.19765,40.72453],[0.2055,40.72647],[0.21418,40.73121],[0.22638,40.73313],[0.22463,40.72556],[0.22737,40.71495],[0.23498,40.70591],[0.23609,40.70165],[0.24204,40.70018],[0.25397,40.70506],[0.26084,40.70576],[0.26874,40.70354],[0.27669,40.69516],[0.29204,40.68813],[0.29129,40.68383],[0.28323,40.67312],[0.27548,40.67018],[0.26782,40.65851],[0.2692,40.64849],[0.26728,40.64702],[0.26665,40.64358],[0.27683,40.63445],[0.27877,40.63033],[0.28186,40.62799],[0.29269,40.62323],[0.297,40.6255],[0.29939,40.6249],[0.31506,40.61413],[0.32156,40.61361],[0.33683,40.60882],[0.34484,40.60752],[0.35235,40.60807],[0.36403,40.60587],[0.38711,40.60664],[0.39491,40.60308],[0.40194,40.60277],[0.40503,40.59916],[0.4056,40.59479],[0.43276,40.57933],[0.44324,40.5787],[0.44328,40.57742],[0.4377,40.57346],[0.43776,40.57139],[0.4338,40.56596],[0.43672,40.55661],[0.43616,40.54959],[0.43877,40.54637],[0.44387,40.54568],[0.46398,40.53696],[0.48863,40.52904],[0.49725,40.52778],[0.51471,40.52294],[0.51746,40.53167],[0.52194,40.53897],[0.52261,40.54309],[0.53013,40.551],[0.53175,40.55078],[0.53421,40.55193],[0.53034,40.55149],[0.53188,40.55304],[0.53256,40.55255],[0.53522,40.56171],[0.53823,40.56763],[0.54728,40.57301],[0.54837,40.57307],[0.55133,40.56971],[0.55643,40.57148],[0.55136,40.56994],[0.54982,40.57175],[0.55214,40.57286],[0.54951,40.5721],[0.54786,40.57407],[0.56026,40.58434],[0.56908,40.59377],[0.57615,40.59864],[0.58043,40.60412],[0.58562,40.60755],[0.59066,40.61296],[0.59569,40.61396],[0.59886,40.61149],[0.60452,40.60922],[0.59537,40.61457],[0.59657,40.61623],[0.59462,40.6155],[0.5932,40.6163],[0.59853,40.61909],[0.60009,40.61782],[0.59805,40.61635],[0.59858,40.61522],[0.5982,40.61636],[0.59992,40.61759],[0.6018,40.61607],[0.59919,40.61419],[0.60011,40.61459],[0.60246,40.61623],[0.60246,40.61701],[0.59823,40.61994],[0.60123,40.62041],[0.60332,40.61823],[0.60388,40.62066],[0.60212,40.62071],[0.60186,40.62195],[0.60653,40.62277],[0.60708,40.61784],[0.60402,40.61765],[0.60409,40.61631],[0.60852,40.61663],[0.60787,40.62295],[0.60382,40.62259],[0.60183,40.62198],[0.60029,40.62079],[0.60031,40.62157],[0.6024,40.62234],[0.6053,40.62318],[0.61152,40.62335],[0.62463,40.62236],[0.64077,40.62395],[0.64369,40.62315],[0.64367,40.62417],[0.64221,40.62421],[0.64942,40.62509],[0.65183,40.62439],[0.65287,40.62635],[0.65858,40.62691],[0.66398,40.62694],[0.6657,40.62544],[0.6641,40.62724],[0.68344,40.63442],[0.68306,40.63622],[0.68447,40.63633],[0.68537,40.63459],[0.69285,40.63636],[0.69252,40.63931],[0.69493,40.63673],[0.70071,40.63809],[0.70373,40.63768],[0.70359,40.63839],[0.70801,40.63634],[0.71103,40.63782],[0.71363,40.63773],[0.71306,40.63844],[0.71404,40.63897],[0.7207,40.63866],[0.72571,40.63967],[0.73317,40.63872],[0.7328,40.64],[0.73354,40.6407],[0.73574,40.63787],[0.73817,40.63774],[0.73658,40.63908],[0.73847,40.63829],[0.73821,40.63739],[0.7393,40.6384],[0.74581,40.63659],[0.74091,40.63061],[0.74152,40.62952],[0.73106,40.61721],[0.72439,40.61081],[0.72349,40.61118],[0.72236,40.60932],[0.72305,40.6089],[0.72015,40.60699],[0.71712,40.60217],[0.71389,40.59953],[0.71469,40.59911],[0.71209,40.59585],[0.70879,40.59425],[0.70979,40.59211],[0.70793,40.59103],[0.70638,40.59145],[0.70361,40.5897],[0.69742,40.58891],[0.68432,40.58918],[0.67243,40.59293],[0.66016,40.59144],[0.65625,40.58884],[0.65419,40.58541],[0.65566,40.58469],[0.65712,40.57826],[0.65384,40.57807],[0.65296,40.58004],[0.64993,40.58112],[0.64988,40.57725],[0.64761,40.57606],[0.64589,40.57683],[0.64627,40.57571],[0.6494,40.57459],[0.64962,40.57287],[0.64889,40.57465],[0.64714,40.57482],[0.64853,40.57368],[0.64845,40.57262],[0.64791,40.57378],[0.64693,40.57343],[0.64546,40.57535],[0.64438,40.57526],[0.64564,40.57375],[0.63396,40.57643],[0.6306,40.57836],[0.63121,40.57997],[0.62994,40.58051],[0.62959,40.5817],[0.61788,40.58577],[0.61655,40.58547],[0.61695,40.58107],[0.61526,40.57894],[0.61582,40.57784],[0.61642,40.57869],[0.61837,40.57201],[0.61595,40.57473],[0.61622,40.57609],[0.61203,40.57598],[0.61136,40.57814],[0.60769,40.5761],[0.6071,40.57675],[0.60834,40.57734],[0.60591,40.57745],[0.60219,40.57466],[0.59258,40.58027],[0.59157,40.57842],[0.59511,40.56745],[0.60505,40.55729],[0.60337,40.5583],[0.60891,40.5549],[0.62211,40.55088],[0.62999,40.55092],[0.65093,40.55431],[0.67512,40.56236],[0.68801,40.56974],[0.70129,40.58078],[0.72292,40.6076],[0.74524,40.63112],[0.75364,40.63821],[0.76369,40.64382],[0.83898,40.67555],[0.85315,40.68358],[0.86066,40.6896],[0.86552,40.69621],[0.87372,40.71703],[0.87334,40.71936],[0.87442,40.72035],[0.87175,40.73056],[0.87154,40.72943],[0.86632,40.73026],[0.86279,40.73647],[0.85975,40.73761],[0.85834,40.737],[0.86147,40.73665],[0.85158,40.73489],[0.84527,40.73122],[0.85546,40.73474],[0.85845,40.73501],[0.85966,40.73399],[0.84527,40.73076],[0.83625,40.73107],[0.82794,40.73421],[0.8203,40.74015],[0.80675,40.75423],[0.79612,40.76343],[0.77756,40.78516],[0.77147,40.78975],[0.76473,40.79261],[0.7563,40.79397],[0.74589,40.79379],[0.7298,40.79114],[0.72575,40.78927],[0.72527,40.78784],[0.72907,40.79027],[0.73578,40.79124],[0.73257,40.78895],[0.75086,40.78461],[0.75291,40.78301],[0.78287,40.77302],[0.78467,40.76992],[0.78339,40.7708],[0.78261,40.768],[0.78263,40.76928],[0.7822,40.76838],[0.78097,40.77009],[0.78013,40.76953],[0.7815,40.76833],[0.77816,40.7673],[0.77711,40.76876],[0.77819,40.7665],[0.77574,40.76749],[0.77238,40.76386],[0.76942,40.76245],[0.76833,40.76356],[0.76938,40.76249],[0.77041,40.76298],[0.76892,40.76357],[0.76785,40.76362],[0.76391,40.76298],[0.76276,40.76182],[0.76131,40.76284],[0.75473,40.76298],[0.75464,40.76447],[0.75236,40.76368],[0.75417,40.76304],[0.75032,40.76362],[0.74958,40.76443],[0.74019,40.76622],[0.73995,40.76752],[0.73909,40.76839],[0.73836,40.7674],[0.73962,40.76653],[0.73782,40.76658],[0.73859,40.76841],[0.73742,40.76661],[0.73024,40.76948],[0.72182,40.77863],[0.71738,40.78005],[0.70669,40.78912],[0.69993,40.79975],[0.70006,40.80354],[0.70674,40.81],[0.70821,40.80979],[0.71151,40.81214],[0.71239,40.81152],[0.70972,40.80816],[0.71066,40.80746],[0.71309,40.81188],[0.71949,40.81375],[0.72265,40.81639],[0.73213,40.81855],[0.73225,40.82109],[0.73509,40.82387],[0.74134,40.82337],[0.74209,40.82563],[0.74143,40.82955],[0.7429,40.83367],[0.7452,40.83894],[0.74927,40.84091],[0.74906,40.84354],[0.75217,40.84636],[0.75632,40.84745],[0.76261,40.8465],[0.76426,40.84897],[0.76375,40.85074],[0.77015,40.85793],[0.78171,40.86086],[0.78804,40.86527],[0.79185,40.86643],[0.79286,40.86876],[0.79506,40.86994],[0.79592,40.87219],[0.79499,40.87427],[0.79709,40.87442],[0.79643,40.87615],[0.79858,40.87651],[0.79861,40.87762],[0.80193,40.87914],[0.80045,40.87917],[0.80314,40.88154],[0.80136,40.88129],[0.80203,40.88256],[0.80498,40.88301],[0.80363,40.88078],[0.80285,40.8774],[0.80558,40.88314],[0.80547,40.88444],[0.80812,40.88608],[0.80736,40.88706],[0.81436,40.89199],[0.81688,40.89196],[0.81632,40.89298],[0.81786,40.8933],[0.81869,40.89584],[0.82505,40.90143],[0.82426,40.90262],[0.82679,40.9033],[0.82698,40.90833],[0.83384,40.91173],[0.83271,40.91173],[0.83252,40.91293],[0.83542,40.91486],[0.83361,40.916],[0.83633,40.91506],[0.83572,40.91349],[0.83669,40.91476],[0.83743,40.91909],[0.85014,40.927],[0.84955,40.92787],[0.8515,40.92963],[0.85217,40.92906],[0.85078,40.92622],[0.85272,40.92996],[0.85163,40.93021],[0.85199,40.93137],[0.85765,40.93577],[0.85721,40.93738],[0.85864,40.94135],[0.86199,40.94686],[0.87531,40.95196],[0.8798,40.95625],[0.88071,40.95982],[0.88596,40.96213],[0.89824,40.97526],[0.90441,40.97761],[0.91541,40.9875],[0.92143,40.98893],[0.92378,40.98747],[0.92236,40.98636],[0.92441,40.98719],[0.92386,40.98804],[0.9249,40.98869],[0.92794,40.98806],[0.92727,40.98927],[0.92933,40.99008],[0.93041,40.9885],[0.92721,40.98712],[0.93088,40.98836],[0.93017,40.98988],[0.93268,40.99198],[0.93824,41.0033],[0.94234,41.00778],[0.96361,41.02628],[0.97085,41.02984],[0.98605,41.0406],[0.99194,41.04282],[1.0038,41.04335],[1.01549,41.05096],[1.02252,41.05179],[1.0265,41.0544],[1.02778,41.05395],[1.02992,41.05479],[1.02853,41.05458],[1.02977,41.05633],[1.0334,41.05641],[1.03674,41.0587],[1.03902,41.05789],[1.04082,41.05874],[1.03971,41.05872],[1.04006,41.06014],[1.0422,41.06122],[1.04403,41.06067],[1.04365,41.06147],[1.04626,41.06306],[1.05197,41.06432],[1.06195,41.06253],[1.05882,41.06448],[1.06469,41.06532],[1.06509,41.06381],[1.06049,41.05998],[1.06358,41.06183],[1.0653,41.06364],[1.0656,41.06486],[1.06987,41.06602],[1.08343,41.06339],[1.10421,41.07049],[1.12544,41.07484],[1.13165,41.07436],[1.13183,41.07315],[1.12968,41.07328],[1.13057,41.07296],[1.1366,41.07338],[1.14392,41.07191],[1.14533,41.06936],[1.14911,41.0675],[1.14758,41.06535],[1.1526,41.06579],[1.15819,41.06379],[1.15866,41.06167],[1.16116,41.06058],[1.16206,41.05859],[1.16077,41.0558],[1.16733,41.05662],[1.17047,41.05467],[1.17255,41.05576],[1.17416,41.05897],[1.18011,41.06251],[1.18153,41.06435],[1.18123,41.0659],[1.18332,41.06693],[1.18105,41.06606],[1.17924,41.06902],[1.1866,41.08106],[1.19226,41.08525],[1.19594,41.08292],[1.19068,41.08659],[1.19196,41.08801],[1.19681,41.09094],[1.19959,41.08784],[1.20577,41.08343],[1.20596,41.08362],[1.19729,41.09088],[1.19679,41.09243],[1.19881,41.09399],[1.20876,41.08714],[1.21419,41.08712],[1.20979,41.08734],[1.21193,41.08869],[1.20481,41.09573],[1.20782,41.09736],[1.21607,41.09018],[1.21919,41.09238],[1.21293,41.09943],[1.21487,41.10067],[1.21604,41.10035],[1.21838,41.10229],[1.22402,41.10179],[1.22554,41.09818],[1.22288,41.09624],[1.22656,41.09864],[1.2253,41.099],[1.22762,41.10031],[1.22589,41.10526],[1.2285,41.10535],[1.23013,41.10095],[1.23753,41.10379],[1.2364,41.10606],[1.23718,41.10646],[1.24141,41.10528],[1.24237,41.1065],[1.24437,41.10598],[1.24505,41.10413],[1.23368,41.09979],[1.23038,41.09539],[1.22906,41.09596],[1.22507,41.0907],[1.22353,41.09057],[1.22577,41.08931],[1.22521,41.08716],[1.21348,41.07866],[1.22646,41.08751],[1.23219,41.09489],[1.24634,41.10046],[1.24836,41.10531],[1.25012,41.10733],[1.25141,41.1066],[1.25086,41.10773],[1.2524,41.10938],[1.25374,41.10861],[1.25108,41.10569],[1.25236,41.10639],[1.25424,41.10881],[1.25346,41.11015],[1.25583,41.11191],[1.26418,41.11423],[1.26653,41.1126],[1.26872,41.11377],[1.27043,41.11315],[1.2749,41.11614],[1.2744,41.11749],[1.27786,41.11993],[1.28211,41.12011],[1.28479,41.12271],[1.28879,41.12309],[1.29348,41.12629],[1.29773,41.12758],[1.31418,41.12945],[1.32236,41.12935],[1.32497,41.12771],[1.32822,41.12869],[1.3359,41.12859],[1.34399,41.12478],[1.34323,41.12561],[1.34434,41.12681],[1.34735,41.12797],[1.35254,41.12714],[1.37646,41.13358],[1.38392,41.13442],[1.38661,41.13251],[1.39408,41.13183],[1.40149,41.13357],[1.40009,41.13385],[1.40271,41.13691],[1.40438,41.13618],[1.40152,41.13263],[1.40499,41.1361],[1.40372,41.13688],[1.40434,41.13802],[1.40949,41.14184],[1.46017,41.1636],[1.46731,41.16621],[1.4728,41.16635],[1.47915,41.16845],[1.48225,41.16827],[1.4839,41.16705],[1.48367,41.16828],[1.48615,41.17013],[1.48817,41.16852],[1.48283,41.16611],[1.48459,41.1661],[1.4887,41.16852],[1.48886,41.17008],[1.49466,41.17291],[1.51406,41.17781],[1.52233,41.17893],[1.52676,41.1783],[1.52735,41.17721],[1.52522,41.17738],[1.52558,41.17634],[1.52766,41.17676],[1.52723,41.17806],[1.53092,41.18001],[1.54077,41.18254],[1.59141,41.18857],[1.60506,41.18815],[1.60567,41.18499],[1.60678,41.18452],[1.60762,41.18471],[1.60612,41.18483],[1.60593,41.18596],[1.60733,41.1864],[1.6063,41.18631],[1.60586,41.18892],[1.60729,41.18906],[1.6083,41.18544],[1.60754,41.18365],[1.60855,41.18479],[1.60833,41.18848],[1.61439,41.19042],[1.62118,41.19024],[1.62198,41.19135],[1.62564,41.19086],[1.62686,41.19196],[1.62972,41.19123],[1.63094,41.19264],[1.63365,41.19222],[1.63792,41.19373],[1.63874,41.19266],[1.64048,41.19286],[1.63952,41.19288],[1.64051,41.19418],[1.64349,41.19335],[1.64542,41.19484],[1.64751,41.19443],[1.64747,41.19363],[1.64949,41.19613],[1.65459,41.19667],[1.6526,41.19382],[1.64717,41.19279],[1.65593,41.19391],[1.6578,41.1958],[1.67632,41.19884],[1.68162,41.20189],[1.68337,41.20178],[1.68377,41.20296],[1.6983,41.20809],[1.70747,41.20748],[1.71503,41.21109],[1.71751,41.21109],[1.71836,41.20985],[1.71998,41.21137],[1.72328,41.21174],[1.72782,41.21109],[1.72771,41.20947],[1.72921,41.20798],[1.73165,41.20996],[1.73124,41.2111],[1.72951,41.21023],[1.72905,41.21151],[1.73076,41.21218],[1.72876,41.21176],[1.72821,41.21316],[1.73075,41.21438],[1.72854,41.21392],[1.72827,41.21492],[1.73326,41.21539],[1.73425,41.21346],[1.73375,41.2155],[1.73578,41.21592],[1.73669,41.21341],[1.73405,41.21279],[1.73639,41.21301],[1.73718,41.21132],[1.73408,41.21056],[1.73355,41.20845],[1.73004,41.20593],[1.73334,41.20773],[1.73471,41.20994],[1.73812,41.21076],[1.73733,41.21439],[1.74268,41.21824],[1.74997,41.2178],[1.754,41.21976],[1.76186,41.21868],[1.76385,41.21998],[1.76643,41.21977],[1.76749,41.2211],[1.77109,41.22088],[1.77192,41.22209],[1.77694,41.22364],[1.78246,41.22332],[1.78814,41.22464],[1.78852,41.22374],[1.78942,41.22623],[1.79074,41.22707],[1.79148,41.22635],[1.79285,41.22722],[1.79203,41.2281],[1.79518,41.22874],[1.7965,41.23043],[1.80731,41.23419],[1.81015,41.23349],[1.81504,41.23598],[1.82066,41.23576],[1.8217,41.23314],[1.82508,41.23358],[1.82174,41.23338],[1.82149,41.23459],[1.82669,41.23423],[1.8266,41.23318],[1.82414,41.23203],[1.82702,41.23306],[1.82747,41.23601],[1.82897,41.23668],[1.84032,41.23501],[1.85392,41.23463],[1.86048,41.23644],[1.86147,41.23913],[1.86331,41.2394],[1.86402,41.23828],[1.86613,41.23944],[1.86737,41.23794],[1.86594,41.23652],[1.86767,41.23796],[1.86626,41.23977],[1.86942,41.24294],[1.88503,41.24775],[1.89699,41.24999],[1.9001,41.24951],[1.89834,41.25028],[1.8996,41.25167],[1.90175,41.25178],[1.90055,41.24906],[1.89884,41.24866],[1.90016,41.24857],[1.9008,41.24899],[1.90307,41.25358],[1.91819,41.25807],[1.9205,41.25693],[1.92026,41.25874],[1.92132,41.25949],[1.92245,41.25835],[1.92117,41.25774],[1.92354,41.25841],[1.92289,41.25931],[1.92467,41.25982],[1.92547,41.25889],[1.92497,41.2599],[1.92822,41.26084],[1.92886,41.25954],[1.92003,41.25598],[1.92107,41.25562],[1.92921,41.25913],[1.93044,41.26086],[1.93777,41.26293],[1.95419,41.26402],[1.99492,41.26412],[2.02388,41.26614],[2.07474,41.27654],[2.11112,41.28904],[2.12303,41.29525],[2.12962,41.2974],[2.13608,41.29763],[2.13791,41.29311],[2.1365,41.29755],[2.13706,41.3006],[2.1446,41.29556],[2.15251,41.29579],[2.15533,41.29772],[2.16668,41.30892],[2.16758,41.31123],[2.16514,41.31778],[2.16714,41.31186],[2.16682,41.30977],[2.1548,41.29759],[2.15262,41.29623],[2.15086,41.29759],[2.14651,41.29732],[2.14291,41.29911],[2.14515,41.30184],[2.14259,41.30312],[2.14238,41.30427],[2.14474,41.30499],[2.15495,41.31523],[2.15291,41.31632],[2.15643,41.3199],[2.15656,41.32028],[2.1565,41.32046],[2.15623,41.3207],[2.15404,41.32193],[2.15366,41.322],[2.15232,41.32184],[2.15381,41.32732],[2.15917,41.32721],[2.16562,41.34116],[2.15948,41.34325],[2.15705,41.34228],[2.15407,41.33902],[2.14893,41.33001],[2.14593,41.33099],[2.14728,41.3337],[2.14428,41.33475],[2.14562,41.33655],[2.14956,41.33667],[2.15092,41.34648],[2.15274,41.34634],[2.15331,41.3427],[2.16324,41.34837],[2.16691,41.34714],[2.17305,41.3565],[2.1699,41.35865],[2.17094,41.36025],[2.17544,41.35863],[2.17674,41.36055],[2.17347,41.36204],[2.17598,41.36533],[2.17932,41.36356],[2.18074,41.36578],[2.17652,41.36713],[2.17709,41.37215],[2.1821,41.3704],[2.18299,41.37161],[2.17798,41.37414],[2.18231,41.37955],[2.18326,41.37755],[2.18109,41.37504],[2.18305,41.37434],[2.18496,41.37673],[2.18367,41.38044],[2.18466,41.38067],[2.18645,41.37965],[2.18725,41.3776],[2.18424,41.37295],[2.18562,41.37262],[2.18667,41.37481],[2.18754,41.37316],[2.1874,41.37227],[2.18478,41.37184],[2.18524,41.36809],[2.18617,41.37013],[2.18721,41.37001],[2.18667,41.36691],[2.18494,41.36526],[2.18661,41.36402],[2.18796,41.36725],[2.18924,41.36657],[2.18459,41.3579],[2.18536,41.35773],[2.19186,41.36986],[2.18996,41.36965],[2.18941,41.37153],[2.19279,41.37899],[2.19456,41.38107],[2.19701,41.38105],[2.19523,41.38186],[2.19611,41.38373],[2.19998,41.38519],[2.19831,41.3869],[2.20045,41.38833],[2.20196,41.38719],[2.2003,41.38579],[2.20274,41.38661],[2.19885,41.38365],[2.20066,41.38381],[2.20362,41.38741],[2.20131,41.38879],[2.20211,41.39009],[2.2046,41.39121],[2.20566,41.39047],[2.20551,41.39202],[2.20887,41.3955],[2.21157,41.39477],[2.21083,41.39681],[2.21354,41.39931],[2.21554,41.3986],[2.21411,41.40025],[2.2158,41.40233],[2.21776,41.40253],[2.21686,41.40321],[2.21808,41.40439],[2.2253,41.40653],[2.22728,41.41049],[2.22896,41.4104],[2.22946,41.41187],[2.22677,41.41385],[2.22503,41.41323],[2.22749,41.41546],[2.22962,41.4134],[2.23293,41.41467],[2.22968,41.40921],[2.23312,41.41455],[2.23191,41.41588],[2.23438,41.42208],[2.24035,41.43172],[2.24203,41.43215],[2.24239,41.43327],[2.24183,41.43256],[2.23982,41.43378],[2.24252,41.43362],[2.24036,41.43466],[2.24084,41.43601],[2.24164,41.43698],[2.24435,41.43643],[2.24282,41.43119],[2.24498,41.43837],[2.24966,41.44476],[2.25689,41.45192],[2.26588,41.45877],[2.28881,41.46941],[2.30444,41.47495],[2.30732,41.47539],[2.30967,41.47416],[2.31239,41.475],[2.30941,41.47443],[2.30852,41.47601],[2.3133,41.47589],[2.31418,41.4762],[2.3132,41.4771],[2.31668,41.47769],[2.31633,41.4762],[2.31098,41.47358],[2.31229,41.47359],[2.33,41.48121],[2.36166,41.48923],[2.36432,41.48931],[2.36578,41.48813],[2.36553,41.48894],[2.36971,41.49037],[2.37048,41.48907],[2.36473,41.48773],[2.36586,41.48724],[2.37046,41.48866],[2.37081,41.48904],[2.37033,41.48989],[2.37579,41.49366],[2.39933,41.50414],[2.41745,41.51603],[2.43955,41.52835],[2.44266,41.5293],[2.4447,41.52784],[2.44308,41.52925],[2.44676,41.53202],[2.44877,41.52984],[2.44449,41.52617],[2.44929,41.5298],[2.44813,41.53216],[2.44963,41.53394],[2.46148,41.5426],[2.47054,41.54668],[2.49405,41.55263],[2.50059,41.55609],[2.50364,41.55564],[2.50625,41.55698],[2.50384,41.55598],[2.50254,41.55712],[2.5054,41.55878],[2.5059,41.55811],[2.50809,41.55808],[2.50648,41.55829],[2.5065,41.55932],[2.50856,41.55966],[2.50902,41.55835],[2.50582,41.55542],[2.5092,41.55807],[2.50947,41.5594],[2.51461,41.56224],[2.54922,41.5769],[2.55479,41.57758],[2.55611,41.57632],[2.55895,41.57613],[2.55633,41.57659],[2.55645,41.57748],[2.55969,41.57785],[2.55644,41.57803],[2.55544,41.57936],[2.56285,41.57932],[2.56011,41.57537],[2.55653,41.57447],[2.56058,41.57498],[2.56224,41.57755],[2.57187,41.58229],[2.60417,41.59402],[2.61868,41.59812],[2.63181,41.60373],[2.63984,41.60492],[2.65195,41.60951],[2.70021,41.62367],[2.71104,41.62812],[2.71919,41.62952],[2.73121,41.63667],[2.74619,41.64234],[2.77409,41.64853],[2.77831,41.65095],[2.78563,41.66536],[2.78892,41.66999],[2.79165,41.6708],[2.7918,41.67257],[2.79484,41.67416],[2.79747,41.67346],[2.79553,41.67482],[2.79924,41.67565],[2.80092,41.67397],[2.79885,41.67284],[2.80047,41.67245],[2.79656,41.67248],[2.79933,41.67153],[2.801,41.67245],[2.80137,41.67405],[2.80289,41.6736],[2.80366,41.67464],[2.80338,41.67608],[2.80571,41.67608],[2.80785,41.67772],[2.80757,41.67896],[2.81568,41.68275],[2.81658,41.68631],[2.81941,41.68894],[2.82779,41.6908],[2.83388,41.6942],[2.8365,41.69435],[2.83884,41.693],[2.84229,41.69358],[2.84359,41.69514],[2.84517,41.69486],[2.84601,41.69737],[2.85109,41.69912],[2.85793,41.69988],[2.86597,41.6987],[2.87366,41.70179],[2.87551,41.70095],[2.87999,41.70197],[2.88008,41.70323],[2.88114,41.70404],[2.88059,41.70299],[2.88236,41.7041],[2.88529,41.70369],[2.88738,41.70153],[2.88974,41.7023],[2.89009,41.70348],[2.89424,41.70425],[2.8956,41.70382],[2.89664,41.70536],[2.90026,41.70564],[2.89916,41.70751],[2.90338,41.7103],[2.90563,41.71053],[2.91273,41.70816],[2.91952,41.71279],[2.92444,41.71206],[2.92652,41.71375],[2.9327,41.7156],[2.93308,41.71483],[2.93507,41.71525],[2.93503,41.71729],[2.9337,41.71814],[2.93481,41.72033],[2.9373,41.72187],[2.93916,41.72166],[2.94111,41.72512],[2.94443,41.72548],[2.94582,41.7274],[2.94785,41.72783],[2.94845,41.72983],[2.94666,41.73026],[2.95107,41.73114],[2.95085,41.73291],[2.95352,41.73138],[2.95468,41.73517],[2.95367,41.7369],[2.95521,41.73734],[2.9566,41.7358],[2.95843,41.73572],[2.95769,41.73664],[2.96026,41.7376],[2.95772,41.73803],[2.9579,41.74028],[2.96486,41.74497],[2.96505,41.74603],[2.96796,41.74819],[2.96862,41.75049],[2.97115,41.75308],[2.97521,41.75398],[2.97706,41.75748],[2.98076,41.75813],[2.98105,41.75963],[2.98261,41.75891],[2.98444,41.76076],[2.99221,41.76124],[2.99527,41.76313],[2.99782,41.763],[2.99821,41.76519],[3.00279,41.76516],[3.00155,41.76573],[3.00163,41.76684],[3.0035,41.7671],[3.00647,41.77034],[3.01045,41.77192],[3.0261,41.77396],[3.02789,41.77283],[3.02792,41.77148],[3.03023,41.77087],[3.03223,41.77252],[3.02979,41.77616],[3.02978,41.77957],[3.03326,41.78039],[3.03575,41.77921],[3.0359,41.78044],[3.03756,41.7801],[3.03797,41.77833],[3.03427,41.77701],[3.04369,41.77855],[3.04461,41.78163],[3.04823,41.78199],[3.04652,41.78304],[3.04683,41.78573],[3.0452,41.78672],[3.04567,41.78849],[3.0493,41.79036],[3.0537,41.79059],[3.05381,41.78887],[3.05569,41.78711],[3.05688,41.78986],[3.05931,41.79084],[3.05845,41.79149],[3.06149,41.79513],[3.06113,41.79815],[3.06538,41.80092],[3.06313,41.80055],[3.06085,41.80365],[3.05856,41.80346],[3.05522,41.80501],[3.06195,41.8043],[3.06326,41.80136],[3.06505,41.80191],[3.06664,41.80072],[3.06481,41.8022],[3.06496,41.8036],[3.06849,41.81399],[3.07151,41.8192],[3.07436,41.82201],[3.0804,41.824],[3.08128,41.82569],[3.08355,41.82629],[3.08785,41.83166],[3.09302,41.83228],[3.09353,41.83752],[3.09972,41.84313],[3.10218,41.84374],[3.10219,41.84494],[3.10372,41.84448],[3.10516,41.84513],[3.10421,41.84538],[3.10494,41.84624],[3.10645,41.84557],[3.10799,41.84606],[3.10711,41.84638],[3.10784,41.84719],[3.11395,41.84855],[3.12218,41.84816],[3.12718,41.84609],[3.12767,41.84543],[3.12382,41.84487],[3.12387,41.8446],[3.1274,41.84447],[3.12821,41.84296],[3.12005,41.84162],[3.13089,41.84172],[3.13583,41.84519],[3.13336,41.84466],[3.13239,41.84628],[3.13687,41.84764],[3.13728,41.8459],[3.13579,41.84407],[3.13761,41.8457],[3.1378,41.84888],[3.14488,41.84967],[3.14532,41.85354],[3.14235,41.85572],[3.14385,41.85783],[3.1501,41.85861],[3.15092,41.85944],[3.15033,41.86104],[3.15172,41.86204],[3.15771,41.86224],[3.15903,41.85965],[3.15903,41.86095],[3.16156,41.86054],[3.16509,41.86201],[3.16587,41.86381],[3.16994,41.86284],[3.17789,41.86779],[3.17696,41.87012],[3.1776,41.87249],[3.17945,41.87414],[3.17842,41.87496],[3.18114,41.87561],[3.18125,41.87651],[3.17903,41.87724],[3.1783,41.87919],[3.18319,41.88174],[3.1821,41.88275],[3.18247,41.88709],[3.18416,41.88822],[3.19039,41.88812],[3.19366,41.89055],[3.19271,41.89194],[3.19428,41.89357],[3.19671,41.89367],[3.19677,41.89243],[3.19553,41.89293],[3.19675,41.89219],[3.20272,41.89156],[3.20535,41.90028],[3.20796,41.90036],[3.20936,41.90212],[3.21005,41.90491],[3.20682,41.90803],[3.21201,41.90916],[3.20808,41.91286],[3.20941,41.91465],[3.2073,41.91709],[3.20853,41.91803],[3.21095,41.91699],[3.21633,41.91828],[3.21684,41.91956],[3.2158,41.92149],[3.21873,41.92258],[3.21643,41.92419],[3.21905,41.92645],[3.21861,41.92722],[3.21725,41.92883],[3.21498,41.92909],[3.21583,41.93051],[3.21994,41.93234],[3.21795,41.93332],[3.22053,41.93484],[3.21858,41.93567],[3.21667,41.93398],[3.21589,41.93578],[3.21419,41.93632],[3.21843,41.94051],[3.21782,41.94242],[3.22571,41.94556],[3.22814,41.94849],[3.23347,41.95036],[3.23073,41.9522],[3.23147,41.95349],[3.22938,41.955],[3.23226,41.95855],[3.23365,41.95857],[3.23356,41.962],[3.23181,41.95947],[3.23015,41.96013],[3.23049,41.96257],[3.22719,41.96391],[3.2318,41.96591],[3.2305,41.96828],[3.23105,41.96917],[3.22711,41.97015],[3.22124,41.97425],[3.21365,41.9741],[3.21213,41.9729],[3.21029,41.97379],[3.21104,41.97716],[3.20246,41.98971],[3.19858,41.99943],[3.1961,42.00979],[3.19429,42.0305],[3.19709,42.04495],[3.20039,42.05099],[3.20202,42.05197],[3.20385,42.0508],[3.20534,42.05152],[3.20389,42.05104],[3.2007,42.05333],[3.20317,42.05319],[3.20414,42.05451],[3.20652,42.05365],[3.20424,42.05231],[3.20754,42.05356],[3.20836,42.05234],[3.20577,42.05074],[3.20656,42.05059],[3.21212,42.05415],[3.21102,42.05517],[3.21366,42.05952],[3.21237,42.05962],[3.2145,42.06113],[3.21004,42.06144],[3.20901,42.06571],[3.21085,42.06757],[3.21197,42.06686],[3.21208,42.06866],[3.20894,42.06927],[3.20708,42.07208],[3.20397,42.07378],[3.20255,42.07351],[3.20426,42.07456],[3.19858,42.07772],[3.19845,42.08],[3.20238,42.08127],[3.20203,42.08215],[3.20097,42.0828],[3.19936,42.08151],[3.19841,42.08354],[3.19518,42.08337],[3.19587,42.08402],[3.19439,42.08469],[3.19528,42.08618],[3.19204,42.08955],[3.19268,42.09099],[3.19142,42.09116],[3.18959,42.09511],[3.18787,42.09543],[3.18868,42.09666],[3.18788,42.09802],[3.18437,42.09924],[3.18425,42.10164],[3.185,42.10152],[3.18308,42.10385],[3.18168,42.10374],[3.18171,42.10527],[3.17931,42.10314],[3.17738,42.10366],[3.1743,42.10259],[3.17156,42.10337],[3.16937,42.10554],[3.16876,42.10662],[3.16975,42.10818],[3.1746,42.1073],[3.17638,42.10955],[3.17613,42.11144],[3.1726,42.11174],[3.17149,42.1143],[3.16917,42.11488],[3.16484,42.11305],[3.16335,42.11535],[3.1583,42.11583],[3.15706,42.11745],[3.15468,42.11767],[3.15096,42.12065],[3.14929,42.1212],[3.14705,42.12094],[3.14543,42.11978],[3.14816,42.12092],[3.15067,42.12042],[3.14501,42.11889],[3.14851,42.11853],[3.14904,42.11702],[3.14735,42.11648],[3.14572,42.11717],[3.14619,42.11783],[3.14328,42.11719],[3.1454,42.11748],[3.14516,42.11563],[3.14106,42.11492],[3.13815,42.11564],[3.13694,42.11694],[3.13835,42.11859],[3.13831,42.12189],[3.13559,42.127],[3.13385,42.12794],[3.13339,42.12662],[3.12763,42.12765],[3.12577,42.12696],[3.12378,42.12834],[3.12468,42.1307],[3.12239,42.1314],[3.12196,42.13576],[3.12006,42.13711],[3.11649,42.14566],[3.11263,42.1649],[3.11119,42.18034],[3.11091,42.20168],[3.1126,42.20928],[3.1194,42.22723],[3.1255,42.23617],[3.135,42.24563],[3.13339,42.24733],[3.13506,42.24734],[3.13639,42.24569],[3.13535,42.24804],[3.14552,42.25622],[3.15089,42.2592],[3.15078,42.25724],[3.15129,42.25993],[3.16309,42.26434],[3.17123,42.26435],[3.17346,42.26341],[3.17463,42.26149],[3.17149,42.25989],[3.17442,42.26112],[3.17704,42.26059],[3.1791,42.25878],[3.17577,42.25693],[3.17524,42.25512],[3.17562,42.25407],[3.1764,42.25426],[3.17559,42.25517],[3.17622,42.25708],[3.18064,42.25786],[3.181,42.25648],[3.17763,42.25658],[3.17789,42.25558],[3.17665,42.25541],[3.1782,42.25531],[3.17891,42.2525],[3.17843,42.25538],[3.18108,42.25579],[3.18108,42.2521],[3.18002,42.25104],[3.17748,42.25112],[3.18164,42.25096],[3.18205,42.24969],[3.18068,42.24797],[3.18235,42.24546],[3.19057,42.2456],[3.19451,42.24744],[3.19657,42.24709],[3.20027,42.24225],[3.20862,42.23995],[3.20906,42.239],[3.20734,42.23736],[3.21248,42.23682],[3.21795,42.23239],[3.22095,42.23445],[3.22053,42.23658],[3.22644,42.23765],[3.22452,42.23898],[3.22493,42.23985],[3.22894,42.2404],[3.22642,42.24189],[3.22584,42.24353],[3.23056,42.2449],[3.22685,42.24898],[3.22706,42.25048],[3.22943,42.25157],[3.23258,42.24918],[3.23764,42.24749],[3.23908,42.25099],[3.24386,42.24967],[3.24923,42.24081],[3.25831,42.23912],[3.26134,42.23726],[3.26373,42.23771],[3.26507,42.23879],[3.26454,42.24076],[3.26626,42.24334],[3.25401,42.24429],[3.25414,42.24581],[3.25261,42.24642],[3.25634,42.24889],[3.25364,42.25256],[3.25528,42.25331],[3.26138,42.25096],[3.26665,42.25367],[3.27381,42.25381],[3.27684,42.25266],[3.27782,42.25352],[3.27931,42.25302],[3.27916,42.25442],[3.27992,42.25464],[3.28159,42.25386],[3.28033,42.25526],[3.28103,42.25762],[3.28285,42.25897],[3.28294,42.2601],[3.28777,42.26587],[3.28631,42.2676],[3.28727,42.27097],[3.28547,42.27134],[3.2831,42.27014],[3.28297,42.27331],[3.2807,42.27438],[3.28013,42.27701],[3.27674,42.28001],[3.27724,42.28127],[3.28076,42.2804],[3.27555,42.28393],[3.2766,42.28745],[3.27936,42.2889],[3.28092,42.28847],[3.28341,42.28574],[3.28776,42.28493],[3.28695,42.28407],[3.28762,42.28251],[3.29553,42.28274],[3.29551,42.28364],[3.29699,42.28365],[3.296,42.28581],[3.29925,42.28455],[3.29904,42.28581],[3.29767,42.28603],[3.29793,42.28797],[3.29582,42.28992],[3.29044,42.29225],[3.29161,42.28955],[3.29081,42.28949],[3.28619,42.29325],[3.29165,42.29486],[3.29124,42.29705],[3.28853,42.29737],[3.2894,42.2991],[3.292,42.29904],[3.29299,42.30171],[3.28916,42.30271],[3.28806,42.30193],[3.28654,42.30356],[3.28987,42.3043],[3.28958,42.30692],[3.29087,42.30708],[3.29466,42.3071],[3.2958,42.30465],[3.30029,42.30448],[3.29818,42.30677],[3.30253,42.30799],[3.30274,42.31124],[3.30372,42.31031],[3.30368,42.31163],[3.30538,42.31123],[3.30623,42.31332],[3.30606,42.31084],[3.30758,42.31066],[3.30759,42.31406],[3.30887,42.31291],[3.31274,42.31302],[3.31145,42.31764],[3.31574,42.31448],[3.31816,42.31454],[3.31515,42.31764],[3.32039,42.31675],[3.32224,42.31948],[3.31929,42.32052],[3.32002,42.32112],[3.3188,42.32199],[3.31175,42.32466],[3.31055,42.32383],[3.31164,42.3216],[3.31099,42.32019],[3.30693,42.32254],[3.30879,42.32322],[3.30769,42.32473],[3.30861,42.32598],[3.30799,42.32663],[3.30442,42.3267],[3.30537,42.32539],[3.30376,42.32645],[3.30114,42.32625],[3.2973,42.32773],[3.29483,42.32944],[3.29227,42.32953],[3.29304,42.32675],[3.28907,42.32938],[3.28776,42.32654],[3.28583,42.3257],[3.28691,42.32876],[3.28575,42.33142],[3.28244,42.33288],[3.28144,42.33286],[3.28178,42.3321],[3.27762,42.33258],[3.28005,42.33359],[3.27932,42.33474],[3.28031,42.33621],[3.27053,42.33837],[3.26765,42.34042],[3.26143,42.34013],[3.26326,42.33671],[3.26116,42.33767],[3.26261,42.33455],[3.26039,42.33506],[3.26014,42.33333],[3.25869,42.3351],[3.25616,42.33534],[3.2541,42.33505],[3.25494,42.33415],[3.25348,42.3333],[3.25056,42.33581],[3.25132,42.33017],[3.24976,42.3297],[3.24577,42.33552],[3.24647,42.33643],[3.24089,42.33571],[3.23991,42.33739],[3.23991,42.33992],[3.23796,42.34103],[3.23681,42.34346],[3.23845,42.34608],[3.23823,42.34887],[3.22868,42.35152],[3.22665,42.34942],[3.22314,42.34908],[3.22236,42.3477],[3.219,42.34983],[3.21545,42.34952],[3.21509,42.34695],[3.2114,42.3471],[3.21021,42.34391],[3.20906,42.34421],[3.20924,42.34548],[3.2054,42.34728],[3.20343,42.34705],[3.20031,42.34073],[3.20252,42.34215],[3.204,42.33935],[3.20213,42.33792],[3.2034,42.33716],[3.20009,42.33514],[3.1965,42.33496],[3.19434,42.33615],[3.19345,42.33812],[3.19025,42.3392],[3.19005,42.34115],[3.18551,42.34365],[3.18611,42.34905],[3.18811,42.34982],[3.18787,42.35181],[3.18426,42.35039],[3.18073,42.3533],[3.17805,42.35289],[3.17745,42.35457],[3.17543,42.35441],[3.17244,42.35574],[3.17095,42.3579],[3.16304,42.36029],[3.16446,42.36212],[3.16311,42.36338],[3.1633,42.36482],[3.1661,42.36661],[3.16714,42.36883],[3.16601,42.36877],[3.16585,42.371],[3.1646,42.37155],[3.16508,42.37428],[3.16264,42.37481],[3.16443,42.3741],[3.16285,42.37306],[3.16385,42.37179],[3.16251,42.37123],[3.16137,42.37264],[3.16299,42.37384],[3.16113,42.37303],[3.16212,42.37145],[3.15955,42.37163],[3.15812,42.37456],[3.15858,42.37645],[3.15502,42.37875],[3.15559,42.38097],[3.15709,42.3812],[3.15963,42.38509],[3.16144,42.3856],[3.16276,42.38471],[3.16284,42.38619],[3.16697,42.38964],[3.16315,42.39167],[3.1597,42.38894],[3.15401,42.39102],[3.15268,42.39354],[3.1648,42.401],[3.1623,42.40446],[3.15831,42.4049],[3.15733,42.40356],[3.15571,42.40555],[3.15596,42.40716],[3.16145,42.40914],[3.16209,42.41136],[3.16553,42.41138],[3.16488,42.41336],[3.17073,42.41664],[3.16893,42.41838],[3.1689,42.42334],[3.17036,42.4241],[3.16983,42.42488],[3.16562,42.42671],[3.16803,42.4254],[3.1668,42.42498],[3.16353,42.4273],[3.16162,42.42667],[3.16057,42.4282],[3.16244,42.42976],[3.16856,42.43032],[3.17145,42.43339],[3.17441,42.4338],[3.17405,42.43475],[3.17497,42.43498],[3.16406,42.436],[3.14521,42.43324],[3.13429,42.43576],[3.12566,42.43485],[3.12145,42.43693],[3.11127,42.43535],[3.10381,42.42974],[3.10267,42.42659],[3.09888,42.42516],[3.08572,42.4256],[3.08053,42.4285],[3.07485,42.43522],[3.0693,42.43795],[3.06705,42.44258],[3.05851,42.44567],[3.05416,42.44997],[3.04859,42.45606],[3.0405,42.47346],[3.03182,42.47492],[3.01233,42.46685],[2.99987,42.47333],[2.9888,42.47402],[2.98244,42.4718],[2.97969,42.46735],[2.97552,42.46745],[2.96741,42.4655],[2.96006,42.47398],[2.94652,42.481],[2.93187,42.47415],[2.92636,42.46577],[2.92451,42.45855],[2.91752,42.45628],[2.90464,42.45692],[2.89147,42.46201],[2.88612,42.4598],[2.88224,42.46049],[2.87652,42.46554],[2.87048,42.46743],[2.86442,42.46436],[2.86353,42.46301],[2.86417,42.45961],[2.86161,42.45501],[2.85675,42.45406],[2.83909,42.45941],[2.83274,42.45269],[2.83349,42.44823],[2.82771,42.43956],[2.82512,42.43884],[2.81844,42.44045],[2.81444,42.43803],[2.81025,42.43298],[2.80519,42.43201],[2.80093,42.42394],[2.80064,42.42159],[2.8023,42.42063],[2.80066,42.41841],[2.79181,42.4185],[2.78502,42.4173],[2.77993,42.41417],[2.77032,42.41177],[2.76151,42.41748],[2.75624,42.42556],[2.753,42.42639],[2.74096,42.42403],[2.73218,42.42383],[2.71708,42.42152],[2.70315,42.4115],[2.69591,42.40909],[2.69332,42.40665],[2.68917,42.40603],[2.68609,42.40714],[2.67434,42.40498],[2.6713,42.40236],[2.6734,42.39917],[2.67138,42.38818],[2.67036,42.38733],[2.66573,42.38562],[2.65195,42.38888],[2.6514,42.38659],[2.65232,42.38457],[2.65676,42.38214],[2.66118,42.37731],[2.66245,42.37263],[2.66088,42.36602],[2.66553,42.36262],[2.67086,42.36107],[2.67485,42.35707],[2.67659,42.3464],[2.6755,42.34241],[2.67175,42.34087],[2.65595,42.34144],[2.6515,42.34381],[2.63864,42.34369],[2.63312,42.34582],[2.61844,42.34554],[2.60516,42.34886],[2.60012,42.3516],[2.59222,42.35292],[2.58769,42.35485],[2.58808,42.35588],[2.58538,42.3572],[2.56634,42.35814],[2.56187,42.36113],[2.56224,42.3553],[2.55403,42.35316],[2.55395,42.34633],[2.55146,42.34225],[2.54407,42.33762],[2.54104,42.33359],[2.5325,42.33292],[2.51488,42.3364],[2.51115,42.33765],[2.51006,42.33962],[2.50075,42.34288],[2.49244,42.34259],[2.48356,42.33995],[2.48092,42.34103],[2.47351,42.34892],[2.47225,42.35288],[2.46629,42.36057],[2.45735,42.36331],[2.45357,42.36967],[2.44575,42.36961],[2.43348,42.37716],[2.43274,42.3783],[2.43533,42.38517],[2.43529,42.38904],[2.43331,42.39416],[2.42431,42.39383],[2.41379,42.39147],[2.39519,42.3953],[2.38548,42.40038],[2.38038,42.40132],[2.36963,42.40094],[2.34815,42.40743],[2.34527,42.41016],[2.34593,42.4154],[2.34398,42.41688],[2.33189,42.41576],[2.32443,42.41767],[2.31906,42.4218],[2.31854,42.42513],[2.31223,42.42837],[2.30653,42.42864],[2.3005,42.42388],[2.29159,42.42312],[2.27295,42.43354],[2.26797,42.43376],[2.25711,42.43861],[2.25216,42.43665],[2.24641,42.42892],[2.23345,42.42612],[2.22434,42.42592],[2.20145,42.41644],[2.19438,42.41841],[2.18963,42.41742],[2.17914,42.41923],[2.16931,42.42354],[2.14887,42.42094],[2.14365,42.41702],[2.13208,42.41415],[2.12557,42.4098],[2.12277,42.40486],[2.12144,42.39718],[2.11484,42.39449],[2.11469,42.38865],[2.1165,42.38324],[2.11331,42.38146],[2.10555,42.38015],[2.09037,42.374],[2.08709,42.36956],[2.08691,42.36397],[2.08486,42.36193],[2.08051,42.36472],[2.0724,42.36488],[2.05982,42.35828],[2.03636,42.35761],[2.02336,42.3556],[2.01606,42.34709],[2.01262,42.34966],[2.01228,42.35126],[2.00168,42.35539],[1.99411,42.3598],[1.98883,42.36047],[1.98641,42.36193],[1.97917,42.3716],[1.97242,42.37333],[1.96572,42.38067],[1.96352,42.38863],[1.96022,42.39295],[1.96113,42.39939],[1.95972,42.40523],[1.95511,42.41161],[1.95857,42.42414],[1.95356,42.42669],[1.9446,42.42807],[1.94096,42.43003],[1.9407,42.43374],[1.943,42.44083],[1.94291,42.44445],[1.93699,42.45369],[1.93272,42.45464],[1.92075,42.44694],[1.9163,42.44624],[1.8982,42.45001],[1.89662,42.44962],[1.89575,42.44759],[1.89117,42.44772],[1.88461,42.4498],[1.88303,42.45742],[1.88103,42.45989],[1.8647,42.46626],[1.86221,42.46598],[1.85952,42.46247],[1.85555,42.46369],[1.84916,42.46765],[1.84178,42.47744],[1.835,42.48165],[1.82342,42.48663],[1.81672,42.48316],[1.80802,42.48691],[1.8043,42.49039],[1.79195,42.48551],[1.76285,42.4875],[1.76267,42.48677],[1.76092,42.48925],[1.74615,42.49548],[1.7301,42.49239],[1.72566,42.50468],[1.71137,42.49226],[1.70361,42.4898],[1.69032,42.49495],[1.67948,42.49468],[1.67387,42.49902],[1.66998,42.50419],[1.66205,42.49248],[1.66244,42.48238],[1.66118,42.47711],[1.66251,42.47445],[1.65702,42.46822],[1.65315,42.46696],[1.64238,42.46669],[1.63611,42.46808],[1.63099,42.46453],[1.61388,42.46542],[1.60729,42.46443],[1.60025,42.46678],[1.59737,42.46632],[1.59143,42.46425],[1.58596,42.46059],[1.58083,42.44998],[1.57919,42.44972],[1.5735,42.45278],[1.56745,42.45888],[1.56164,42.45822],[1.55623,42.45413],[1.56023,42.44899],[1.55543,42.44658],[1.55294,42.44338],[1.55428,42.44006],[1.55321,42.43388],[1.552,42.43259],[1.53955,42.43302],[1.52823,42.43203],[1.51639,42.42885],[1.51156,42.42921],[1.49871,42.43313],[1.4866,42.43301],[1.46145,42.43639],[1.45518,42.43605],[1.44723,42.43944],[1.44439,42.44142],[1.44258,42.44471],[1.4468,42.44377],[1.44615,42.4481],[1.4418,42.45272],[1.44117,42.45545],[1.44753,42.46007],[1.44216,42.46334],[1.44063,42.46607],[1.44007,42.47067],[1.44103,42.47548],[1.43335,42.48187],[1.41897,42.4828],[1.41914,42.48395],[1.42556,42.49315],[1.44334,42.49522],[1.468,42.50995],[1.45966,42.52356],[1.4553,42.52836],[1.45247,42.53374],[1.4525,42.53863],[1.45055,42.53989],[1.43883,42.54346],[1.43094,42.53932],[1.41364,42.53535],[1.41434,42.53997],[1.41754,42.54347],[1.42409,42.55694],[1.4395,42.56363],[1.44448,42.56862],[1.44341,42.57192],[1.43609,42.57336],[1.43214,42.57535],[1.42648,42.5828],[1.42735,42.58667],[1.43795,42.59211],[1.44006,42.59426],[1.44269,42.59951],[1.44302,42.60276],[1.44228,42.60372],[1.43805,42.60284],[1.43693,42.60353],[1.43059,42.61151],[1.42944,42.61476],[1.42979,42.61771],[1.42787,42.62023],[1.42063,42.62479],[1.41367,42.64785],[1.41376,42.65524],[1.40325,42.65923],[1.40007,42.66543],[1.3964,42.66828],[1.38747,42.66862],[1.38701,42.67803],[1.38992,42.68521],[1.38918,42.68708],[1.38697,42.68939],[1.37724,42.69464],[1.36702,42.6951],[1.35265,42.70082],[1.35106,42.70365],[1.35242,42.71114],[1.35781,42.71521],[1.35732,42.71946],[1.34906,42.72],[1.33969,42.71895],[1.33705,42.71966],[1.33499,42.72435],[1.33232,42.72476],[1.32473,42.72381],[1.31839,42.72018],[1.3109,42.71818],[1.29713,42.71933],[1.29024,42.71828],[1.27876,42.7141],[1.27479,42.71874],[1.26885,42.71827],[1.26566,42.71552],[1.2529,42.71483],[1.25095,42.71908],[1.24731,42.72252],[1.22924,42.72782],[1.21711,42.7205],[1.21077,42.72075],[1.19914,42.71769],[1.19148,42.71726],[1.17664,42.71116],[1.17513,42.7087],[1.17047,42.70793],[1.16442,42.71007],[1.15341,42.71629],[1.15126,42.71962],[1.14855,42.72142],[1.14294,42.72299],[1.13339,42.72808],[1.13283,42.73159],[1.13438,42.73429],[1.13297,42.73792],[1.13038,42.7407],[1.13021,42.74432],[1.13203,42.75082],[1.12882,42.75469],[1.11916,42.76349],[1.11128,42.76531],[1.10837,42.77194],[1.09563,42.7744],[1.08865,42.77805],[1.08512,42.78095],[1.08295,42.78535],[1.07887,42.78833],[1.077,42.78805],[1.07353,42.78267],[1.05488,42.7824],[1.04747,42.78102],[1.04384,42.7811],[1.04264,42.78237],[1.04409,42.78449],[1.04146,42.78612],[1.03723,42.78695],[1.02974,42.78578],[1.01708,42.78705],[1.00517,42.79087],[0.9944,42.78701],[0.9841,42.7867],[0.97709,42.79133],[0.97865,42.79305],[0.97762,42.79485],[0.97432,42.79731],[0.96807,42.79962],[0.966,42.80364],[0.96023,42.8059],[0.947,42.80118],[0.93935,42.79668],[0.93311,42.78955],[0.92602,42.78945],[0.91787,42.79367],[0.91669,42.79559],[0.90701,42.79831],[0.90645,42.80084],[0.90034,42.80355],[0.8861,42.81258],[0.87995,42.815],[0.87661,42.81446],[0.86867,42.81707],[0.85387,42.82684],[0.84623,42.82864],[0.83377,42.8284],[0.82126,42.83335],[0.81565,42.83709],[0.80151,42.8406],[0.7963,42.84003],[0.78979,42.83646],[0.77709,42.83622],[0.76292,42.84026],[0.76118,42.84282],[0.73632,42.84895],[0.7345,42.85436],[0.72354,42.85891]],[[2.15255,41.31643],[2.15047,41.31764],[2.15336,41.32091],[2.15214,41.32163],[2.15386,41.32192],[2.15647,41.32014],[2.15255,41.31643]],[[1.24718,41.10581],[1.23962,41.10729],[1.24029,41.10877],[1.2434,41.10985],[1.2491,41.10864],[1.24718,41.10581]],[[2.15415,41.33897],[2.15433,41.33873],[2.15405,41.33878],[2.15415,41.33897]],[[2.15471,41.33949],[2.15472,41.33937],[2.15465,41.33939],[2.15471,41.33949]]]]},"properties":{"OBJECTID":1,"NOMCAT":"Catalunya","CAPCAT":"Barcelona","AREACA5000":32104.6465,"SHAPE_Length":1544614.448713513,"SHAPE_Area":32104653603.27977}}]}